<!doctype html>

<html>

<head>

<title>TLE for NORAD Catalog Number 44248</title>

</head>

<body>

<pre>
STARLINK-34             
1 44248U 19029P   19302.15929448  .00001886  00000-0  14896-3 0  9994
2 44248  52.9973 181.9417 0002702  55.2448 304.8794 15.05484994 23918

</pre>
	
</body>

</html>
